GLOBALSTAR M084 [+]     
1 38040U 11080A   23241.46850216 -.00000076  00000+0  15505-3 0  9991
2 38040  51.9986 250.8122 0000453  70.0174  83.0003 12.62265284539601
GLOBALSTAR M080 [+]     
1 38041U 11080B   23241.44716668 -.00000087  00000+0  94898-4 0  9997
2 38041  52.0038 252.2518 0000455  45.5437 131.0302 12.62263963539729
GLOBALSTAR M082 [+]     
1 38042U 11080C   23241.61746744 -.00000120  00000+0 -90070-4 0  9992
2 38042  52.0057 207.1089 0000484 163.3448   7.3261 12.62270241540454
GLOBALSTAR M092 [+]     
1 38043U 11080D   23241.49799043 -.00000068  00000+0  19924-3 0  9997
2 38043  52.0084 297.8169 0000750  92.2791  15.3768 12.62271924538892
GLOBALSTAR M090 [+]     
1 38044U 11080E   23241.32260660 -.00000113  00000+0 -50715-4 0  9994
2 38044  51.9868 202.6630 0000092  95.4833  54.6608 12.62267200540534
GLOBALSTAR M086 [+]     
1 38045U 11080F   23241.35021139 -.00000110  00000+0 -33145-4 0  9999
2 38045  51.9877 203.0776 0000973 321.4561 194.9613 12.62269799540482
GLOBALSTAR M097 [+]     
1 39072U 13005A   23241.81767733 -.00000090  00000+0  77599-4 0  9994
2 39072  52.0038 115.5362 0000352  67.1081 292.9822 12.62270278487793
GLOBALSTAR M093 [+]     
1 39073U 13005B   23241.79104224 -.00000089  00000+0  83186-4 0  9999
2 39073  51.9803 109.9710 0000196  38.8155 321.2725 12.62266217487740
